[{"OBJECT_NAME":"FLOCK 4BE-27","OBJECT_ID":"2024-149AX","EPOCH":"2026-03-09T18:04:53.053248","MEAN_MOTION":15.32593322,"ECCENTRICITY":0.00027324,"INCLINATION":97.3862,"RA_OF_ASC_NODE":150.6783,"ARG_OF_PERICENTER":305.898,"MEAN_ANOMALY":54.2008,"EPHEMERIS_TYPE":0,"CLASSIFICATION_TYPE":"U","NORAD_CAT_ID":60513,"ELEMENT_SET_NO":999,"REV_AT_EPOCH":8690,"BSTAR":0.00036576028,"MEAN_MOTION_DOT":0.00011439,"MEAN_MOTION_DDOT":0},{"OBJECT_NAME":"STARLINK-34566","OBJECT_ID":"2025-147L","EPOCH":"2026-03-09T21:18:14.324256","MEAN_MOTION":15.30179956,"ECCENTRICITY":0.0001125,"INCLINATION":53.1587,"RA_OF_ASC_NODE":241.7163,"ARG_OF_PERICENTER":68.3537,"MEAN_ANOMALY":291.7584,"EPHEMERIS_TYPE":0,"CLASSIFICATION_TYPE":"U","NORAD_CAT_ID":64765,"ELEMENT_SET_NO":999,"REV_AT_EPOCH":3878,"BSTAR":0.00052945413,"MEAN_MOTION_DOT":0.00015345,"MEAN_MOTION_DDOT":0}]
